[{"OBJECT_NAME":"STARLINK-32243","OBJECT_ID":"2024-138N","EPOCH":"2026-03-09T22:20:50.063136","MEAN_MOTION":15.30186409,"ECCENTRICITY":0.00011117,"INCLINATION":53.161,"RA_OF_ASC_NODE":308.5466,"ARG_OF_PERICENTER":78.3415,"MEAN_ANOMALY":281.7711,"EPHEMERIS_TYPE":0,"CLASSIFICATION_TYPE":"U","NORAD_CAT_ID":60367,"ELEMENT_SET_NO":999,"REV_AT_EPOCH":9066,"BSTAR":7.2806564e-5,"MEAN_MOTION_DOT":1.797e-5,"MEAN_MOTION_DDOT":0},{"OBJECT_NAME":"SIMSAT 2","OBJECT_ID":"2000-026B","EPOCH":"2026-03-09T20:25:01.673184","MEAN_MOTION":15.29036787,"ECCENTRICITY":0.00037035,"INCLINATION":86.3514,"RA_OF_ASC_NODE":176.4271,"ARG_OF_PERICENTER":287.9875,"MEAN_ANOMALY":72.0969,"EPHEMERIS_TYPE":0,"CLASSIFICATION_TYPE":"U","NORAD_CAT_ID":26366,"ELEMENT_SET_NO":999,"REV_AT_EPOCH":42803,"BSTAR":0.00013465771,"MEAN_MOTION_DOT":3.833e-5,"MEAN_MOTION_DDOT":0}]
